2020-058B               
1 46233U 20058B   20253.23168112  .00001121  00000-0  49108-4 0  9990
2 46233  97.5022 300.7506 0015554 205.6279 239.1018 15.24056233  2598
2020-058C               
1 46234U 20058C   20253.56349589  .00002785  00000-0  11738-3 0  9990
2 46234  97.5019 301.0833 0015582 204.1880 260.1588 15.24083685  2648
SKYSAT-C19              
1 46235U 20057BS  20253.24962567  .00008574  00000-0  58186-4 0  9993
2 46235  53.0003 332.0171 0016585  70.5480 289.7328 15.75841101  3071
FALCON 9 DEB            
1 46236U 20057BT  20253.19713694  .00460922  11590-4  32101-3 0  9990
2 46236  52.9978 330.1560 0070220 122.0280 238.7600 16.10072531  3473
SAOCOM 1B               
1 46265U 20059A   20253.23749802  .00047927  00000-0  54017-2 0  9994
2 46265  97.8803  76.9884 0004501 138.2461 222.0642 14.86393200  1372
GNOMES-1                
1 46266U 20059B   20253.02698488  .00000425  00000-0  52437-4 0  9993
2 46266  97.8851  76.8064 0006554 110.4958 249.7031 14.87885258  1343
TYVAK-0172              
1 46267U 20059C   20253.02529056  .00000559  00000-0  66658-4 0  9996
2 46267  97.8729  76.7954 0007636 115.8953 244.3119 14.88166674  1333
RLFL14                  
1 46268U 20060A   20253.48366862 -.00000171  00000-0  50344-5 0  9990
2 46268  45.1011 281.5400 0013223 318.6273  41.3601 15.09544892  1419
CAPELLA-2               
1 46269U 20060B   20253.22071862  .00000278  00000-0  32692-4 0  9998
2 46269  45.1027 282.9588 0011149 319.5010  40.5040 15.09255259  1372
ELECTRON R/B            
1 46270U 20060C   20253.46731931  .01102823  92618-5  60327-3 0  9992
2 46270  45.0958 276.3120 0211465 312.9485  45.3853 15.85313759  1471
NUSAT-6 (HYPATIA)       
1 46272U 20061A   20253.22055236  .00000348  00000-0  22072-4 0  9999
2 46272  97.4681 326.2049 0006114 197.0317 163.0711 15.15061182   924
ESAIL                   
1 46273U 20061B   20253.22016040  .00000247  00000-0  16656-4 0  9999
2 46273  97.4681 326.2055 0005668 197.4739 162.6299 15.15158091   929
ION-MK01                
1 46274U 20061C   20253.21987932  .00000225  00000-0  15474-4 0  9999
2 46274  97.4682 326.2060 0005312 197.3017 162.8036 15.15227936   927
2020-061D               
1 46275U 20061D   20253.21695119  .00000173  00000-0  12413-4 0  9995
2 46275  97.4642 326.2068 0000764 135.5456 224.5838 15.15957884   927
